EYESAT A (AO-27)        
1 22825U 93061C   26132.89794877  .00000043  00000+0  33463-4 0  9990
2 22825  98.6892 200.3212 0008050 196.3419 163.7505 14.30932230701955
ITAMSAT (IO-26)         
1 22826U 93061D   26132.46844700  .00000041  00000+0  32501-4 0  9995
2 22826  98.6840 199.8056 0008878 181.2449 178.8713 14.31358097702202
RADIO ROSTO (RS15)      
1 23439U 94085A   26132.90641606 -.00000046  00000+0 -10743-3 0  9992
2 23439  64.8193   0.2768 0154958  10.3348 350.0702 11.27583706291928
JAS-2 (FO-29)           
1 24278U 96046B   26132.82172513 -.00000025  00000+0  10649-4 0  9992
2 24278  98.5279 346.5311 0349707 188.0537 171.4897 13.53272310468383
FORTE                   
1 24920U 97047A   26132.92992071  .00000091  00000+0  60035-4 0  9994
2 24920  69.9521  93.6558 0023652 320.4960  39.4437 14.27929871493656
TECHSAT 1B (GO-32)      
1 25397U 98043D   26132.87255971  .00000029  00000+0  32726-4 0  9992
2 25397  99.0064 124.7427 0001010  13.1949 346.9255 14.24421265446304
ISS (ZARYA)             
1 25544U 98067A   26132.84394688  .00005010  00000+0  98361-4 0  9990
2 25544  51.6312 115.0561 0007510  52.2723 307.8945 15.49198654566277
IMAGE                   
1 26113U 00017A   26131.51486742  .00000008  00000+0 -20584-1 0  9999
2 26113  94.2002 314.8870 7459903 291.9767   8.1989  1.68665748160880
CLUSTER II-FM7 (SAMBA)  
1 26410U 00041A   26134.67012284  .00003081  00000+0  00000+0 0  9994
2 26410 149.8131  45.0140 9016039 261.7471   0.4872  0.44842106 20150
CLUSTER II-FM8 (TANGO)  
1 26464U 00045B   26134.64524914  .00003165  00000+0  00000+0 0  9995
2 26464 150.0702  46.0108 9019980 262.6015   0.5030  0.44404709 20143
ODIN                    
1 26702U 01007A   26132.53654964  .00074863  00000+0  72794-3 0  9990
2 26702  97.3936 171.4659 0001948 199.4523 160.6662 15.66058166383807
OMNI-M1                 
1 26857U 01026A   26132.55669822 -.00000019  00000+0  00000+0 0  9993
2 26857  44.8439 253.4765 0015447  47.3287 312.8214  3.92401465204175
PCSAT (NO-44)           
1 26931U 01043C   26132.95706249  .00000065  00000+0  55252-4 0  9998
2 26931  67.0512 335.3934 0006279 263.7179  96.3208 14.31941974285403
PROBA-1                 
1 26958U 01049B   26132.95514918  .00001501  00000+0  10081-3 0  9999
2 26958  97.9616 140.2599 0053775 241.4498 118.1310 15.07362387338314
SAUDISAT 1C (SO-50)     
1 27607U 02058C   26132.34773994  .00000635  00000+0  92778-4 0  9997
2 27607  64.5523 239.8634 0075634 269.0204  90.2235 14.82969432259142
CORIOLIS                
1 27640U 03001A   26132.96456368  .00000069  00000+0  53039-4 0  9992
2 27640  98.7136 140.3864 0013165 318.2434  41.7737 14.19934820209227
CUTE-1 (CO-55)          
1 27844U 03031E   26132.91289216  .00000190  00000+0  10142-3 0  9994
2 27844  98.6747 141.9148 0008342 290.6840  69.3444 14.24313141186652
CUBESAT XI-IV (CO-57)   
1 27848U 03031J   26132.95398353  .00000166  00000+0  92089-4 0  9999
2 27848  98.6779 141.6963 0008465 311.5693  48.4759 14.23601310186360
MOZHAETS 4 (RS22)       
1 27939U 03042A   26132.91342818  .00001124  00000+0  18148-3 0  9991
2 27939  98.3475 316.2782 0011909  26.6361 109.5744 14.73405335210357
